Establishment Type,Establishment Sub-Type,Establishment Name,Contact Title,Contact Name,Address 1,Address 2,Town/City,Postcode,Phone,Fax,Email,Website,Establishment Notes,SEED Code,Nursery Class,School Annexe,Neighbourhood,Multi-Member Ward,X,Y,Short Name,Opening Hours,Religion,Associated secondary school,Meal provider,More about primary school meals,Eco-Schools status,More about the Eco-Schools programme,Catchment area map,Glow SCA,Glow ASM,Kitchen,Business Manager,Business Manager E-mail,Active School Co-ordinator,ASC Phone,CC Opening Hours,CC Bus Routes,CC Facilities,CC Cafe,CC Internet Access,CC Key Activities,CC Disabled Access,CC Projects In Centre,CC Programme,CC More Information,CC Location description,ICT Coordinator,HT Email,Av SOS Roll
Schools - Primary,ND Primary,Abbeyhill Primary School,Head Teacher,Sandra Stewart (Acting),Abbey Street,,Edinburgh,EH7 5SJ,0131 661 3054,0131 478 7067,Admin@Abbeyhill.edin.sch.uk,http://www.abbeyhill.edin.sch.uk,,5520924,YES,,North,City Centre,327073,674330,Abbeyhill PS,,Non-Denominational,Drummond Community High,Edinburgh Catering Services,,Silver,,,Lynsey Stewart,Linda Finlay,,Linda Watt,linda.watt@abbeyhill.edin.sch.uk,Nicola Barclay,07825 842971,,,,,,,,,,,,Sandra Stewart (Acting Head Teacher) and Tania Evans (Primary Teacher),Sandra.Stewart@abbeyhill.edin.sch.uk,176
Schools - Primary,ND Primary,Balgreen Primary School,Head Teacher,Fiona Christie,171 Balgreen Road,,Edinburgh,EH11 3AT,0131 337 6066,0131 476 7220,Admin@Balgreen.edin.sch.uk,http://www.balgreen.edin.sch.uk,,5521025,,,West,Sighthill/Gorgie,322130,672300,Balgreen PS,,Non-Denominational,Tynecastle High,Edinburgh Catering Services,,Green Flag,,,Avril Wilson,Janette Smith,,Eileen Grant,Eileen.Grant@ea.edin.sch.uk,Pamela Brown,07884 142774,,,,,,,,,,,,Elizabeth Little (Learning Assistant) and Stephen Mitchell (Primary Teacher),Fiona.Christie@balgreen.edin.sch.uk,367
Schools - Primary,ND Primary,Blackhall Primary School,Head Teacher,Arran Finlay,83 Craigcrook Road,,Edinburgh,EH4 3PH,0131 336 1023,0131 466 7063,Admin@blackhall.edin.sch.uk,http://www.blackhall.edin.sch.uk,,5521122,,,West,Inverleith,321338,674322,Blackhall PS,,Non-Denominational,The Royal High,Edinburgh Catering Services,,Green Flag,,,Wayne Galloway,Frances Fyvie,,June Cameron,June.Cameron@ea.edin.sch.uk,Neil Russell,07825 782585,,,,,,,,,,,,Sara MacDonald (Primary Teacher),Arran.Finlay@blackhall.edin.sch.uk,417
Schools - Primary,ND Primary,Bonaly Primary School,Headteacher,Laurinda Ramage,57 Bonaly Road,,Edinburgh,EH13 0FJ,0131 441 7211,0131 441 7245,Admin@Bonaly.edin.sch.uk,http://www.bonaly.edin.sch.uk,,5540925,YES,,South West,Colinton/Fairmilehead,321388,668064,Bonaly PS,,Non-Denominational,Firrhill High,Mitie,,Silver,,,Morag Cameron,Susan Blyth,,Susan Blyth,Susan.Blyth@ea.edin.sch.uk,Lorna Norman,07884 191761,,,,,,,,,,,,Morag Cameron (Primary Teacher),Laurinda.Ramage@bonaly.edin.sch.uk,429
Schools - Primary,ND Primary,Broomhouse Primary School,Head Teacher,Yvonne Barrie,39 Saughton Road,,Edinburgh,EH11 3RQ,0131 443 3783,0131 444 0446,Admin@Broomhouse.edin.sch.uk,http://www.broomhouse.edin.sch.uk,,5521424,YES,,West,Sighthill/Gorgie,320494,671313,Broomhouse PS,,Non-Denominational,Forrester High,Amey,,Green Flag,,,Christopher Kelly,Christopher Kelly,,Pamela Soutar,Pamela.Soutar@ea.edin.sch.uk,Paddy Dearlove,07884 203270,,,,,,,,,,,,Chris Kelly (Acting DHT),Yvonne.Barrie@broomhouse.edin.sch.uk,179
Schools - Primary,ND Primary,Broughton Primary School,Head Teacher,Samantha Rushforth (Acting),132 Broughton Road,,Edinburgh,EH7 4LD,0131 556 7028,0131 556 7001,Admin@broughton-pri.edin.sch.uk,http://www.broughton-pri.edin.sch.uk,,5521521,YES,,North,Leith Walk,325880,675350,Broughton PS,,Non-Denominational,Drummond  Community High,Edinburgh Catering Services,,Green Flag,,,Paula Gilhooly,Alan Devine,,Asif Ahmed,Asif.Ahmed@ea.edin.sch.uk,Nicola Barclay,07825 842971,,,,,,,,,,,,"Alan Devine, David Borthwick, Alexa Pope, Paula Gilhooly and Asif Ahmed",Samantha.Rushforth@broughton-pri.edin.sch.uk,386
Schools - Primary,ND Primary,Brunstane Primary School,Head Teacher,Elizabeth Boyle,106 Magdalene Drive,,Edinburgh,EH15 3BE,0131 669 4498,0131 669 7457,Admin@brunstane.edin.sch.uk,http://www.brunstane.edin.sch.uk,,5521629,YES,,East,Portobello/Craigmillar,331160,672636,Brunstane PS,,Non-Denominational,Portobello High,Edinburgh Catering Services,,Silver,,,Tori Wright,B J Cairnie,Yes,Brian Cairnie,Brian.Cairnie@ea.edin.sch.uk,Jayne Smith (term-time only),0131 661 4459/07884 271028,,,,,,,,,,,,Karen MacLeod (Teacher) and Tori Wright (Probationary Teacher),Elizabeth.Boyle@brunstane.edin.sch.uk,201
Schools - Primary,ND Primary,Bruntsfield Primary School,Head Teacher,Carol-Anne Kyle,12 Montpelier,,Edinburgh,EH10 4NA,0131 229 1821,0131 221 9969,Admin@bruntsfield.edin.sch.uk,http://www.bruntsfield.edin.sch.uk,,5521726,,,South,Meadows/Morningside,324480,672250,Bruntsfield PS,,Non-Denominational,Boroughmuir High,Edinburgh Catering Services,,Silver,,,Jim Wilson,Annabelle Barlow,Yes,Joe Biolik,Joe.Biolik@ea.edin.sch.uk,Andrew Caldwell,07825 386710/0131 229 9703,,,,,,,,,,,,Jim Wilson (Depute Head Teacher) and Joe Biolik (Business Manager),Carol-Anne.Kyle@bruntsfield.edin.sch.uk,489
Schools - Primary,ND Primary,Buckstone Primary School,Head Teacher,Diane Palmer,79 Buckstone Loan East,,Edinburgh,EH10 6UY,0131 445 4545,0131 445 7709,Admin@buckstone.edin.sch.uk,http://www.buckstone.edin.sch.uk,,5541220,YES,,South,Colinton/Fairmilehead,325330,668730,Buckstone PS,,Non-Denominational,Boroughmuir High,Edinburgh Catering Services,,Green Flag,,,Derek Hyde,Nicki Swanston,,Graeme Greig,Graeme.Greig@ea.edin.sch.uk,Andrew Caldwell,07825 386710/0131 229 9703,,,,,,,,,,,,Derek Hyde (Primary Teacher) and Linda Forbes (Deputising Depute Head Teacher),Diane.Palmer@buckstone.edin.sch.uk,424
Schools - Primary,ND Primary,Bun-sgoil Taobh na Pairce (Parkside Primary School),Head Teacher,Anne MacPhail,139b Bonnington Road,,Edinburgh,EH6 5NQ,0131 553 5856,,,,,1002724,,,North,Leith Walk,326470,675895,Parkside PS,,Non-Denominational,,,,,,,,,,Eleanor Grafton,,,,,,,,,,,,,,,,,
Schools - Primary,ND Primary,Canal View Primary School,Head Teacher,Ann Moore,4 Hailesland Place,,Edinburgh,EH14 2SL,0131 442 3894,0131 458 5750,Admin@Canalview.edin.sch.uk,http://www.canalview.edin.sch.uk,,5520428,YES,,South West,Sighthill/Gorgie,320075,669956,Canal View PS,,Non-Denominational,Wester Hailes Education Centre,Edinburgh Catering Services,,Silver,,,Iain Shand,Iain Shand,,Iain Shand,Iain.Shand@ea.edin.sch.uk,Charlotte Robertson,0131 442 2201/07884 244362,,,,,,,,,,,,Lesley MacKay (Primary Teacher),Ann.Moore@canalview.edin.sch.uk,252
Schools - Primary,ND Primary,Carrick Knowe Primary School,Head Teacher,Andrew Hunter,Lampacre Road,,Edinburgh,EH12 7HU,0131 334 4505,0131 467 7293,Admin@Carrickknowe.edin.sch.uk,http://www.carrickknowe.edin.sch.uk,,5521920,YES,,West,Corstorphine/Murrayfield,320510,672450,Carrick Knowe PS,,Non-Denominational,Forrester High,Edinburgh Catering Services,,Green Flag,,,Barbara Thomson,Joyce Matear,,Elizabeth McLellan,Elizabeth.McLellan@ea.edin.sch.uk,Paddy Dearlove,07884 203270,,,,,,,,,,,,Andrew Blackie (Primary Teacher) and Elizabeth McLellan (Business Manager) and Ross Hutcheson (Primary Teacher),Andrew.Hunter@carrickknowe.edin.sch.uk,417
Schools - Primary,ND Primary,Castleview Primary School,Head Teacher,Greg Dimeck (Acting),2d Greendykes Road,,Edinburgh,EH16 4DP,0131 661 6429,0131 661 9493,Admin@Castleview.edin.sch.uk,http://www.castleview.edin.sch.uk,,5520029,YES,,East,Portobello/Craigmillar,329150,671401,Castleview PS,,Non-Denominational,Castlebrae High,Amey,,Green Flag,,,Iona Taylor,,,Karen Meikle,karen.meikle@castleview.edin.sch.uk,Alan Reid,0131 468 4504,,,,,,,,,,,,Karen Meikle (Business Manager) and Stephanie Campbell (Primary Teacher),greg.dimeck@castleview.edin.sch.uk,228
Schools - Primary,ND Primary,Clermiston Primary School,Head Teacher,Gordon McIntyre,18 Parkgrove Place,,Edinburgh,EH4 7NP,0131 336 3361,0131 538 7251,Admin@clermiston.edin.sch.uk,http://www.clermiston.edin.sch.uk,,5522021,YES,,West,Drum Brae/Gyle,319460,674870,Clermiston PS,,Non-Denominational,The Royal High,Edinburgh Catering Services,,Silver,,,Geraldine Forsyth,Mhairi Patterson,Yes,June Cameron,June.Cameron@ea.edin.sch.uk,Neil Russell,07825 782585,,,,,,,,,,,,Geraldine Forsyth (Principal Teacher) and Stuart Lithgow (Primary Teacher),Gordon.McIntyre@clermiston.edin.sch.uk,345
Schools - Primary,ND Primary,Clovenstone Primary School,Head Teacher,Carolyn Didcock,54 Clovenstone Park,,Edinburgh,EH14 3EY,0131 453 4242,0131 453 2598,Admin@Clovenstone.edin.sch.uk,http://www.clovenstone.edin.sch.uk,,5532027,YES,,South West,Pentland Hills,320460,669430,Clovenstone PS,,Non-Denominational,Wester Hailes Education Centre,Edinburgh Catering Services,,Bronze,,,Ellie Henderson,Tim Wallace,Yes,Kate Preston,Kate.Preston@ea.edin.sch.uk,Charlotte Robertson,0131 442 2201/07884 244362,,,,,,,,,,,,Dawn White (Primary Teacher),Carolyn.Didcock@clovenstone.edin.sch.uk,201
Schools - Primary,ND Primary,Colinton Primary School,Head Teacher,Susan Imrie,Redford Place,,Edinburgh,EH13 0AL,0131 441 1946,0131 441 4861,Admin@Colinton.edin.sch.uk,http://www.colinton.edin.sch.uk,,5522129,YES,,South West,Colinton/Fairmilehead,322790,669055,Colinton PS,,Non-Denominational,Firrhill High,Edinburgh Catering Services,,Silver,,,Susan Imrie,Susan Blyth,,Susan Blyth,Susan.Blyth@ea.edin.sch.uk,Lorna Norman,07884 191761,,,,,,,,,,,,Mhairi Anderson (Primary Teacher) and Susan Imrie (Head Teacher),Susan.Imrie@colinton.edin.sch.uk,170
Schools - Primary,ND Primary,Corstorphine Primary School,Head Teacher,Jennifer Ross,62 Corstorphine High Street,,Edinburgh,EH12 7SY,0131 334 3865,0131 538 7274,Admin@Corstorphine.edin.sch.uk,http://www.corstorphine.edin.sch.uk,,5522323,YES,,West,Corstorphine/Murrayfield,319810,672700,Corstorphine PS,,Non-Denominational,Craigmount High,Edinburgh Catering Services,,Green,,,Katie MacLean,Kelly Doran,,Claire Thompson,Claire.Thompson@ea.edin.sch.uk,Alisa Wilson,0131 336 2532/07825 843159,,,,,,,,,,,,Claire Thompson (Business Manager) and Kelly Doran (Primary Teacher) and Vicki Walker (Primary Teacher),Jennifer.Ross@Corstorphine.edin.sch.uk,516
Schools - Primary,ND Primary,Craigentinny Primary School,Head Teacher,Maria Gowans,4 Loganlea Drive,,Edinburgh,EH7 6LR,0131 661 2749,0131 467 7212,morag.paterson@craigentinny.edin.sch.uk,http://www.craigentinny.edin.sch.uk,,5522420,YES,,North,Craigentinny/Duddingston,328642,674708,Craigentinny PS,,Non-Denominational,Leith Academy,Edinburgh Catering Services,,Green Flag,,,Doreen Roberts,Andrew Fair,,Andrew Fair,Andrew.Fair@ea.edin.sch.uk,Craig Renwick,07884 228020,,,,,,,,,,,,Doreen Roberts (Primary Teacher),Maria.Gowans@craigentinny.edin.sch.uk,210
Schools - Primary,ND Primary,Craiglockhart Primary School,Head Teacher,Derek Law,90 Ashley Terrace,,Edinburgh,EH11 1RG,0131 337 1407,0131 346 0735,Admin@Craiglockhart.edin.sch.uk,http://www.Craiglockhart.edin.sch.uk,,5522528,YES,,West,Fountainbridge/Craiglockhart,323380,671650,Craiglockhart PS,,Non-Denominational,Tynecastle High,Edinburgh Catering Services,,Silver,,,Chris Kelly,Kendal Gator,,Catriona Stewart,Catriona.Stewart@ea.edin.sch.uk,Pamela Brown,07884 142774,,,,,,,,,,,,Kendal Gater (Depute Head Teacher) and Mhairi Lindsay (Primary Teacher),Derek.Law@craiglockhart.edin.sch.uk,373
Schools - Primary,ND Primary,Craigour Park Primary School,Head Teacher,Carol Cameron,102 Moredun Park Road,,Edinburgh,EH17 7HL,0131 664 7594,0131 672 1063,Admin@craigourpark.edin.sch.uk,http://www.craigourpark.edin.sch.uk,,5520223,YES,,South,Liberton/Gilmerton,329168,669452,Craigour Park PS,,Non-Denominational,Liberton High,Amey,,Green Flag,,,Claire Herault,Claire Herault,,Paul McQuade,Paul.McQuade@ea.edin.sch.uk,Ellie Forgan,07884 210647,,,,,,,,,,,,Claire Herault (Primary Teacher),Carol.Cameron@craigourpark.edin.sch.uk,407
Schools - Primary,ND Primary,Craigroyston Primary School,Head Teacher,Lorna Stewart,7 Muirhouse Place West,,Edinburgh,EH4 4PX,0131 343 6465,0131 343 2766,Admin@craigroyston-pri.edin.sch.uk,http://www.craigroyston-pri.edin.sch.uk,,5502527,YES,,North,Forth,321770,675760,Craigroyston PS,,Non-Denominational,Craigroyston Community High,Amey,,Green Flag,,,Norma Morrison,Carol Bryce,,Carol Bryce,Carol.Bryce@craigroyston-pri.edin.sch.uk,Andrew Gallacher,07711 390745/0131 477 7801,,,,,,,,,,,,Norma Morrison (Primary Teacher),Lorna.Stewart@craigroyston-pri.edin.sch.uk,223
Schools - Primary,ND Primary,Cramond Primary School,Head Teacher,Helen Donaldson,4 Cramond Crescent,,Edinburgh,EH4 6PG,0131 312 6450,0131 312 8710,Admin@cramond.edin.sch.uk,http://www.cramond.edin.sch.uk,,5522927,YES,,West,Almond,318690,676150,Cramond PS,,Non-Denominational,The Royal High,Edinburgh Catering Services,,Silver,,,Lyndsy Adam,Lyndsy Adam,,Lyndsy Adam,Lyndsy.Adam@ea.edin.sch.uk,Neil Russell,07825 782585,,,,,,,,,,,,Yasmeen Naeem,Helen.Donaldson@cramond.edin.sch.uk,433
Schools - Primary,ND Primary,Currie Primary School,Head Teacher,Sally Hourston,59 Curriehill Road,Currie,Edinburgh,EH14 5PU,0131 449 3359,0131 476 7019,Admin@currie-pri.edin.sch.uk,http://www.currie-pri.edin.sch.uk,,5520320,YES,,South West,Pentland Hills,317999,667994,Currie PS,,Non-Denominational,Currie High,Edinburgh Catering Services,,Green Flag,,,Anna Mitchell,Margaret Campbell,,Margaret Campbell,Margaret.Campbell@ea.edin.sch.uk,Bev Anderson,0131 477 7788,,,,,,,,,,,,Margaret Campbell (Business Manager),Sally.Hourston@currie-pri.edin.sch.uk,407
Schools - Primary,ND Primary,Dalmeny Primary School,Head Teacher,Laura Brandon,Carlowrie Crescent,Dalmeny,Edinburgh,EH30 9TZ,0131 331 1447,0131 331 1447,Admin@Dalmeny.edin.sch.uk,http://www.dalmeny.edin.sch.uk,,5531527,YES,,West,Almond,314387,677235,Dalmeny PS,,Non-Denominational,Queensferry High,Edinburgh Catering Services,,Silver,,,Sarah Murray,Jane Wallace,,Jane Wallace,Jane.Wallace@ea.edin.sch.uk,Barry McGuigan,0131 319 3200/07799 861494,,,,,,,,,,,,Jane Wallace (Business Manager) and Yvonne Jarron (Teacher),Laura.Brandon@dalmeny.edin.sch.uk,112
Schools - Primary,ND Primary,Dalry Primary School,Head Teacher,Grant Gillies,Dalry Road,,Edinburgh,EH11 2JB,0131 337 6086,0131 337 3798,Admin@Dalry.edin.sch.uk,http://www.dalry.edin.sch.uk,,5523028,YES,,West,Sighthill/Gorgie,323710,672790,Dalry PS,,Non-Denominational,Tynecastle High,Edinburgh Catering Services,,Green Flag,,,Sally Barker,Sally Barker,,Elaine O'Donnell,Elaine.ODonnell@ea.edin.sch.uk,Pamela Brown,07884 142774,,,,,,,,,,,,Elaine O'Donnell (Business Manager) and Sally Barker (Teacher),Grant.Gillies@dalry.edin.sch.uk,311
Schools - Primary,ND Primary,Davidson's Mains Primary School,Head Teacher,Lesley Nock,Corbiehill Road,,Edinburgh,EH4 5DZ,0131 336 1184,0131 467 7784,Admin@davidsonsmains.edin.sch.uk,http://www.davidsonsmains.edin.sch.uk,,5523125,YES,,West,Almond,320910,675250,Davidson`s Mains PS,,Non-Denominational,The Royal High,Edinburgh Catering Services,,Silver,,,Diarmind Harris,Lynne McGrath,Yes,Lynne McGrath,Lynne.McGrath@ea.edin.sch.uk,Neil Russell,07825 782585,,,,,,,,,,,,Diarmid Harris (Principal Teacher) and Neil Hogg (Learning Assistant),Lesley.Nock@davidsonsmains.edin.sch.uk,509
Schools - Primary,ND Primary,Dean Park Primary School,Head Teacher,Rehana Shanks,31 Marchbank Gardens,Balerno,Edinburgh,EH14 7ET,0131 449 4529,0131 449 5990,Admin@deanpark.edin.sch.uk,,,5540429,YES,"1 Main Street, Balerno, EH14 7EQ",South West,Pentland Hills,316076,665929,Dean Park PS,,Non-Denominational,Balerno Community High,Edinburgh Catering Services,,Green Flag,,,Rehana Shanks,Diane Young,Yes,Kirsten Boyd,kirsten.boyd@ea.edin.sch.uk,"Bev Anderson (Mon, Tue, Wed)",07799 861460/0131 477 7788,,,,,,,,,,,,Alex Parsley (Primary Teacher) and Elizabeth Spence (Nursery Teacher) and Jane Cooper (Staff),rehana.shanks@deanpark.edin.sch.uk,511
Schools - Primary,ND Primary,Duddingston Primary School,Head Teacher,Karen Morris,70a Duddingston Road,,Edinburgh,EH15 1SW,0131 669 5092,0131 669 4224,Admin@duddingston.edin.sch.uk,http://www.duddingston.edin.sch.uk,,5523524,YES,,East,Craigentinny/Duddingston,329430,673340,Duddingston PS,,Non-Denominational,Portobello High,Edinburgh Catering Services,,Silver,,,David Wright,Sandra Duff,Yes,Peter Malone,Peter.Malone@ea.edin.sch.uk,Shona Clark (Tues - Fri),0131 661 4459/07884 271028,,,,,,,,,,,,David Wright (Deputising Depute Head Teacher),Karen.Morris@duddingston.edin.sch.uk,411
Schools - Primary,ND Primary,East Craigs Primary School,Head Teacher,Caroline Sanderson,79 Craigmount Brae,,Edinburgh,EH12 8XF,0131 339 7115,0131 538 7276,Admin@eastcraigs.edin.sch.uk,http://www.eastcraigs.edin.sch.uk,,5531225,YES,,West,Drum Brae/Gyle,318786,673915,East Craigs PS,,Non-Denominational,Craigmount High,Edinburgh Catering Services,,Green Flag,,,James Logan,Catriona Stewart,,Catriona Stewart,Catriona.Stewart@ea.edin.sch.uk,Alisa Wilson,0131 336 2532/07825 843159,,,,,,,,,,,,"Doris Edwards (Principal Teacher), James Logan (Primary Teacher) and Laura Monaghan (Depute Headteacher)",Caroline.Sanderson@eastcraigs.edin.sch.uk,414
Schools - Primary,ND Primary,Echline Primary School,Head Teacher,Dorothy Crawford,Bo'ness Road,South Queensferry,Edinburgh,EH30 9XJ,0131 331 3397,0131 319 2385,Admin@echline.edin.sch.uk,http://www.echline.edin.sch.uk,,5518229,YES,,West,Almond,312014,678151,Echline PS,,Non-Denominational,Queensferry High,Edinburgh Catering Services,,Green Flag,,,Jim McColgan,Elaine Murray,Yes,Patricia Stefanovic,Patricia.Stefanovic@ea.edin.sch.uk,Barry McGuigan,0131 319 3200/07799 861494,,,,,,,,,,,,"Dorothy Crawford (Head Teacher), Claire Martin (Primary Teacher) and Marie Goodlad (Staff)",Dorothy.Crawford@echline.edin.sch.uk,272
Schools - Primary,ND Primary,Ferryhill Primary School,Head Teacher,Stewart Crabb,Groathill Road North,,Edinburgh,EH4 2SQ,0131 538 7382,0131 538 7381,Admin@ferryhill.edin.sch.uk,http://www.ferryhill.edin.sch.uk,,5541522,YES,,North,Inverleith,322036,675205,Ferryhill PS,,Non-Denominational,Broughton High,Edinburgh Catering Services,,Green Flag,,,Alison Scott,Arlene Davison,Yes,Arlene Davison,Arlene.Davison@ea.edin.sch.uk,Andrew Gallacher (Thurs/Fri),07711 390745,,,,,,,,,,,,Alison Scott (Primary Teacher) and Arlene Davison (Business Manager) and Stacey Caplan (Primary Teacher),Stewart.Crabb@ferryhill.edin.sch.uk,319
Schools - Primary,ND Primary,Flora Stevenson Primary School,Head Teacher,Irene Brennan,175 Comely Bank,,Edinburgh,EH4 1BG,0131 332 1604,0131 343 6310,Admin@florastevenson.edin.sch.uk,http://www.florastevenson.edin.sch.uk,,5523826,YES,,North,Inverleith,323602,674607,Flora Stevenson PS,,Non-Denominational,Broughton High,Edinburgh Catering Services,,Silver,,,Maureen Allan,Lisa Dow,,Kathleen Barclay,kathleen.barclay@florastevenson.edin.sch.uk,Andrew Gallacher,07711 390745,,,,,,,,,,,,Jonathan Baxter (Principal Teacher),Irene.Brennan@florastevenson.edin.sch.uk,536
Schools - Primary,ND Primary,Forthview Primary School,Head Teacher,Eileen Littlewood,West Pilton Place,,Edinburgh,EH4 4DF,0131 332 2468,0131 332 2201,Admin@forthview.edin.sch.uk,http://www.forthview.edin.sch.uk,,5520126,YES,,North,Forth,322680,675950,Forthview PS,,Non-Denominational,Craigroyston Community High,Amey,,Silver,,,Richard Napier,Richard Napier,,Fiona McGonigle,Fiona.McGonigle@ea.edin.sch.uk,Andrew Gallacher,07711 390745/0131 477 7801,,,,,,,,,,,,Bill Stobie (Primary Teacher),Eileen.Littlewood@sighthill.edin.sch.uk,401
Schools - Primary,ND Primary,Fox Covert Primary School,Head Teacher,Gillian O'Rourke,Clerwood Terrace,,Edinburgh,EH12 8PG,0131 339 3749,0131 317 8612,Admin@foxcovert.edin.sch.uk,http://www.foxcovert.edin.sch.uk,,5524024,,,West,Drum Brae/Gyle,320207,674016,Fox Covert PS,,Non-Denominational,Craigmount High,Edinburgh Catering Services,,Green Flag,,,Elaine Mack,Sarah Dickson,,Sarah Dickson,Sarah.Dickson@ea.edin.sch.uk,Alisa Wilson,0131 336 2532/07825 843159,,,,,,,,,,,,Elaine Mack (Primary Teacher) and Sarah Dickson (Business Manager),Gillian.O'Rourke@foxcovert.edin.sch.uk,201
Schools - Primary,RC Primary,Fox Covert RC Primary School,Head Teacher,Anne Purcell,Clerwood Terrace,,Edinburgh,EH12 8PG,0131 339 2383,0131 317 8638,Admin@foxcovert-rc.edin.sch.uk,http://www.foxcovert-rc.edin.sch.uk,,5524121,,,West,Drum Brae/Gyle,320160,673980,Fox Covert RC PS,,Roman Catholic,St Augustine`s RC High,Edinburgh Catering Services,,Green Flag,,,Anne Purcell,Sarah Dickson,,Sarah Dickson,Sarah.Dickson@ea.edin.sch.uk,Alisa Wilson,0131 336 2532/07825 843159,,,,,,,,,,,,Anne Purcell (Head Teacher),Anne.Purcell@foxcovert-rc.edin.sch.uk,166
Schools - Primary,ND Primary,Gilmerton Primary School,Head Teacher,Richard Napier,2 Moredun Dykes Road,,Edinburgh,EH17 8NQ,0131 664 3614,0131 672 3096,Admin@Gilmerton.edin.sch.uk,http://www.gilmerton.edin.sch.uk,,5524229,,,South,Liberton/Gilmerton,328936,668853,Gilmerton PS,,Non-Denominational,Liberton High - a section of Gilmerton PS also feeds to Gracemount High School,Edinburgh Catering Services,,Silver,,,James Prowser,Alison Campbell,Yes,Paul McQuade,Paul.McQuade@ea.edin.sch.uk,Ellie Forgan,07884 210647,,,,,,,,,,,,Jennifer Sommerville (Primary Teacher) and Lindsay Odie (Principle Teacher),Richard.Napier@gilmerton.edin.sch.uk,367
Schools - Primary,ND Primary,Gracemount Primary School,Head Teacher,Rose Islambolipoor,45 Gracemount House Drive,,Edinburgh,EH16 6FD,0131 664 2331,0131 621 7029,Admin@gracemount-pri.edin.sch.uk,http://www.gracemount-pri.edin.sch.uk,,5524423,YES,,South,Liberton/Gilmerton,327895,668581,Gracemount PS,,Non-Denominational,Gracemount High,Edinburgh Catering Services,,Green Flag,,,Ishbel Chavasse,Lesley Lonie,Yes,Kate Carey,Kate.Carey@ea.edin.sch.uk,Phil Kidd,0131 664 7440/07824 622953,,,,,,,,,,,,Ishbel Chavasse (Primary Teacher) and Kate Carey (Business Manager),Rose.Islambolipoor@gracemount-pri.edin.sch.uk,458
Schools - Primary,ND Primary,Granton Primary School,Head Teacher,Shelagh Dow (Acting),55 Boswall Parkway,,Edinburgh,EH5 2DA,0131 552 3987,0131 551 2856,Admin@Granton.edin.sch.uk,,,5524520,YES,,North,Forth,323560,676620,Granton PS,,Non-Denominational,Broughton High,Edinburgh Catering Services,,Silver,,,Kirstie Miller,Kirstie Miller,,Linsey O'Donnell,,Robert Ure,07884 216213,,,,,,,,,,,,Elspeth Henderson (Depute Head Teacher) and Karen Sutherland (Staff) and Kirstie Miller (Principle Teacher),Shelagh.Dow@granton.edin.sch.uk,400
Schools - Primary,ND Primary,Gylemuir Primary School,Head Teacher,Aileen Smart,10 Wester Broom Place,,Edinburgh,EH12 7RT,0131 334 7138,0131 334 5148,Admin@Gylemuir.edin.sch.uk,http://www.gylemuir.edin.sch.uk,,5524822,YES,,West,Drum Brae/Gyle,319180,672410,Gylemuir PS,,Non-Denominational,Forrester High,Edinburgh Catering Services,,Green Flag,,,Gary Sullivan,Corrine McLeod,Yes,Pauline Wingate,Pauline.Wingate@gylemuir.edin.sch.uk,Paddy Dearlove,07884 203270,,,,,,,,,,,,Elaine Short (Principal Teacher) and Gary Sullivan (IT Technician),Aileen.Smart@glylemuir.edin.sch.uk,468
Schools - Primary,ND Primary,Hermitage Park Primary School,Head Teacher,Denise Penrose,9 Hermitage Park,,Edinburgh,EH6 8HD,0131 554 2952,0131 538 7280,Admin@Hermitagepark.edin.sch.uk,http://www.hermitagepark.edin.sch.uk,,5525128,YES,,North,Leith,327562,675341,Hermitage Park PS,,Non-Denominational,Leith Academy,Edinburgh Catering Services,,Green Flag,,,Grace Bell,Andrew Fair,Yes,Andrew Fair,Andrew.Fair@ea.edin.sch.uk,Craig Renwick,07884 228020,,,,,,,,,,,,Andrew Fair (Business manager) and Grace Bell (Principal Teacher),denise.penrose@hermitagepark.edin.sch.uk,391
Schools - Primary,ND Primary,Hillwood Primary School,Head Teacher,Sally Barker (Acting),Station Road,Ratho Station,Edinburgh,EH28 8PT,0131 333 1210,0131 335 3682,Admin@hillwood.edin.sch.uk,,,5540526,YES,,West,Almond,313179,672304,Hillwood PS,,Non-Denominational,Craigmount High,Edinburgh Catering Services,,Registered,,,Marion Purdie,Karen Sutherland,,Patricia Stefanovich,Patricia.Stefanovic@ea.edin.sch.uk,Alisa Wilson,0131 336 2532/07825 843159,,,,,,,,,,,,Charlotte Verity (Primary Teacher),Sally.Barker@dalry.edin.sch.uk,60
Schools - Primary,RC Primary,Holy Cross RC Primary School,Head Teacher,Jackie McCarry,Craighall Road,,Edinburgh,EH6 4RE,0131 552 1972,0131 478 7033,Admin@Holycross.edin.sch.uk,http://www.holycross.edin.sch.uk,,5525225,YES,,North,Forth,325400,676250,Holy Cross RC PS,,Roman Catholic,St Thomas of Aquin`s RC High,Edinburgh Catering Services,,Silver,,,Jackie McCarry,Jim Scott,,Jim Scott,Jim.Scott@ea.edin.sch.uk,Nicky Wheatley,07799 868054,,,,,,,,,,,,Jim Scott (Business Manager),Jackie.McCarry@holycross.edin.sch.uk,312
Schools - Primary,ND Primary,James Gillespie's Primary School,Head Teacher,Anthea Grierson,Whitehouse Loan,,Edinburgh,EH9 1BD,0131 447 1014,0131 447 1042,Admin@jamesgillespies-pri.edin.sch.uk,http://www.jamesgillespies-pri.edin.sch.uk,,5525829,YES,,South,Meadows/Morningside,325011,672164,James Gillespie`s PS,,Non-Denominational,James Gillespie`s High,Edinburgh Catering Services,,Silver,,,Janice McGrath-Scott,Vacancy,Yes,Linsey Wright,Linsey.Wright@jamesgillespies-pri.edin.sch.uk,Jonathan Wallace,07799 861473,,,,,,,,,,,,Janice McGrath (Deputising Depute Head Teacher),Anthea.Grierson@jamesgillespies-pri.edin.sch.uk,435
Schools - Primary,ND Primary,Juniper Green Primary School,Head Teacher,Karen Noble,20 Baberton Mains Wynd,,Edinburgh,EH14 3EE,0131 442 2121,0131 453 2742,Admin@junipergreen.edin.sch.uk,http://www.junipergreen.edin.sch.uk,,5525926,YES,,South West,Pentland Hills,319776,668909,Juniper Green PS,,Non-Denominational,Currie High,Mitie,,Green,,,Emma Dignan,Arlene McNally,,Christine McColl,Helen.Galway@ea.edin.sch.uk,Bev Anderson,0131 477 7788,,,,,,,,,,,,Christopher Doran (Primary Teacher),Karen.Noble@junipergreen.edin.sch.uk,449
Schools - Primary,ND Primary,Kirkliston Primary School,Head Teacher,Lynn Paterson,15 Carmel Road,Kirkliston,Edinburgh,EH29 9DD,0131 333 3260,0131 335 3582,Admin@kirkliston.edin.sch.uk,http://www.kirkliston.edin.sch.uk,,5531721,,,West,Almond,312036,674548,Kirkliston PS,,Non-Denominational,Queensferry High,Edinburgh Catering Services,,Green Flag,,,Teresa A Mooney,Teresa A Mooney,Yes,Linsey wright (temp),linsey.wright@ea.edin.sch.uk,Barry McGuigan,0131 319 3200/07799 861494,,,,,,,,,,,,Helen Bartholomew (Kirkliston Nursery),Lynn.Paterson@kirkliston.edin.sch.uk,332
Schools - Primary,ND Primary,Leith Primary School,Head Teacher,Alasdair Friend,St Andrew's Place,,Edinburgh,EH6 7EG,0131 554 4844,0131 467 7988,Admin@Leith-pri.edin.sch.uk,http://www.leith-pri.edin.sch.uk,,5532221,YES,,North,Leith,327149,675895,Leith PS,,Non-Denominational,Leith Academy,Edinburgh Catering Services,,Silver,,,Fiona Craig,John Wall,Yes,John Wall,John.Wall@ea.edin.sch.uk,Craig Renwick,07884 228020,,,,,,,,,,,,Fiona Craig (Principal Teacher) and John Wall (Business Manager),Alasdair.Friend@Leith-pri.edin.sch.uk,280
Schools - Primary,ND Primary,Leith Walk Primary School,Head Teacher,Jackie Reid,9 Brunswick Road,,Edinburgh,EH7 5NG,0131 556 3873,0131 556 6524,Admin@leithwalk.edin.sch.uk,http://www.leithwalk.edin.sch.uk,,5526124,YES,,North,Leith Walk,326470,674780,Leith Walk PS,,Non-Denominational,Drummond Community High,Edinburgh Catering Services,,Green Flag,,,Stewart Crabb,Lorna Greig,,Viv Bowden,Vivienne.Bowden@ea.edin.sch.uk,Nicola Barclay,07825 842971,,,,,,,,,,,,Vivienne Bowden (Business Manager),Vivienne.Bowden@ea.edin.sch.uk,233
Schools - Primary,ND Primary,Liberton Primary School,Head Teacher,Paul Ewing,229 Gilmerton Road,,Edinburgh,EH16 5UD,0131 664 2337,0131 666 0599,Admin@liberton-pri.edin.sch.uk,http://www.liberton-pri.edin.sch.uk,,5531829,YES,,South,Liberton/Gilmerton,327470,670610,Liberton PS,,Non-Denominational,Liberton High,Edinburgh Catering Services,,Bronze,,,Trevor Wemyss,Rosalind Tracey,,Carol Bryce,Carol.Bryce@ea.edin.sch.uk,Ellie Forgan,07884 210647,,,,,,,,,,,,Paul Ewing (Head Teacher),Paul.Ewing@liberton-pri.edin.sch.uk,417
Schools - Primary,ND Primary,Longstone Primary School,Head Teacher,Irene Mirtle,Redhall Grove,,Edinburgh,EH14 2DU,0131 443 4743,0131 443 5297,Admin@longstone.edin.sch.uk,http://www.longstone.edin.sch.uk,,5526523,YES,,South West,Sighthill/Gorgie,321280,670490,Longstone PS,,Non-Denominational,Firrhill High,Edinburgh Catering Services,,Bronze,,,Hayley Mears,Carol Andrews,,Sheena Laing,Sheena.Laing@ea.edin.sch.uk,Lorna Norman,07884 191761,,,,,,,,,,,,Lorna Robertson (Primary Teacher) and Sheena Laing (Business Manager),Irene.Mirtle@longstone.edin.sch.uk,270
Schools - Primary,ND Primary,Lorne Primary School,Head Teacher,Colin McLean,7 Lorne Street,,Edinburgh,EH6 8QS,0131 554 2308,0131 467 7228,Admin@Lorne.edin.sch.uk,http://www.lorne.edin.sch.uk,,5526620,YES,,North,Leith Walk,326781,675421,Lorne PS,,Non-Denominational,Leith Academy,Edinburgh Catering Services,,Green,,,Dave Short,John Wall,Yes,John Wall,John.Wall@ea.edin.sch.uk,Craig Renwick,07884 228020,,,,,,,,,,,,David Short (Depute Head Teacher) and John Wall (Staff),Colin.McLean@Lorne.edin.sch.uk,262
Schools - Primary,ND Primary,Murrayburn Primary School,Head Teacher,Michael Urquhart,1 Sighthill Loan,,Edinburgh,EH11 4NP,0131 453 5339,0131 442 1709,Admin@murrayburn.edin.sch.uk,,,5527023,YES,,West,Sighthill/Gorgie,320016,670665,Murrayburn PS,,Non-Denominational,Forrester High,Edinburgh Catering Services,,Silver,,,Iona Morisson,Elizabeth Mclellan,,Elizabeth McLellan,Elizabeth.McLellan@ea.edin.sch.uk,Charlotte Robertson,0131 442 2201/07884 244362,,,,,,,,,,,,David Edwards (Primary Teacher) and Liz Mclellan (Business Manager),Michael.Urquhart@Murrayburn.edin.sch.uk,394
Schools - Primary,ND Primary,Nether Currie Primary School,Head Teacher,Sheila Nicol,23 Thomson Crescent,Currie,Edinburgh,EH14 5JR,0131 449 3140,0131 449 2477,Admin@Nethercurrie.edin.sch.uk,http://www.nethercurrie.edin.sch.uk,,5540224,,,South West,Pentland Hills,318620,668220,Nether Currie PS,,Non-Denominational,Currie High,Edinburgh Catering Services,,Green Flag,,,Lynne Cuerden,Nicola Mowat,,Nicola Mowat,Nicola.Mowat@ea.edin.sch.uk,Bev Anderson,0131 477 7788,,,,,,,,,,,,Lynne Cuerden (Primary Teacher),Sheila.Nicol@nethercurrie.edin.sch.uk,148
Schools - Primary,ND Primary,Newcraighall Primary School,Head Teacher,Janet Paterson,Whitehill Street,Newcraighall,Edinburgh,EH21 8QZ,0131 669 3598,0131 657 4134,Admin@newcraighall.edin.sch.uk,http://www.newcraighall.edin.sch.uk,,5527120,YES,,East,Portobello/Craigmillar,332130,671880,Newcraighall PS,,Non-Denominational,Castlebrae High,Edinburgh Catering Services,,Bronze,,,Caroline Leslie,Caroline Leslie,,Caroline Leslie,Caroline.Leslie@newcraighall.edin.sch.uk,"Shirley Banks (Mon, Tues)",07774 468782,,,,,,,,,,,,Jan Paterson (Head Teacher),Jan.Paterson@newcraighall.edin.sch.uk,127
Schools - Primary,ND Primary,Niddrie Mill Primary School,Head Teacher,Anne Pettit,20 Moffat Way,,Edinburgh,EH16 4PY,0131 468 7025,0131 468 7027,Admin@niddriemill.edin.sch.uk,http://www.niddriemill.edin.sch.uk,,5527228,,,East,Portobello/Craigmillar,329684,671875,Niddrie Mill PS,,Non-Denominational,Castlebrae High,Edinburgh Catering Services,,Bronze,,,Diane Bell,Rosemary Birrell,Yes,Lyndsaye Tippen,Lyndsaye.tippen@niddriemill.edin.sch.uk,"Shirley Banks (Mon, Tues)",07774 468782,,,,,,,,,,,,Diane Bell (Primary Teacher),Anne.Pettit@niddriemill.edin.sch.uk,270
Schools - Primary,ND Primary,Oxgangs Primary School,Head Teacher,Liz Walshe,60 Oxgangs Road North,,Edinburgh,EH13 9DS,0131 441 3649,0131 441 9838,Admin@Oxgangs.edin.sch.uk,http://www.oxgangs.edin.sch.uk,,5527422,YES,,South West,Colinton/Fairmilehead,322906,669533,Oxgangs PS,,Non-Denominational,Firrhill High,Amey,,Silver,,,Graeme Hunter,Carol Munro,,Carol Munro,Carol.Munro@ea.edin.sch.uk,Lorna Norman,07884 191761,,,,,,,,,,,,Graeme Hunter (Primary Teacher) and Liz Walshe (Head Teacher),Liz.Walshe@oxgangs.edin.sch.uk,388
Schools - Primary,ND Primary,Parsons Green Primary School,Head Teacher,Willie French,60 Meadowfield Drive,,Edinburgh,EH8 7LU,0131 661 4459,0131 661 6405,Admin@parsonsgreen.edin.sch.uk,http://www.parsonsgreen.edin.sch.uk,,5527627,YES,,East,Craigentinny/Duddingston,328680,673370,Parsons Green PS,,Non-Denominational,Portobello High,Edinburgh Catering Services,,Silver,,,,Mandy Docherty,Yes,Asif Ahmed,Asif.Ahmed@ea.edin.sch.uk,Jayne Smith (term-time only),0131 661 4459/07884 271028,,,,,,,,,,,,Jennifer McGowan (Principal Teacher),willie.french@parsonsgreen.edin.sch.uk,302
Schools - Primary,ND Primary,Pentland Primary School,Head Teacher,Jacqueline Mackenzie,Oxgangs Green,,Edinburgh,EH13 9JF,0131 445 1510,0131 445 7710,Admin@pentland.edin.sch.uk,http://www.pentland.edin.sch.uk,,5530920,YES,,South West,Colinton/Fairmilehead,323848,668905,Pentland PS,,Non-Denominational,Firrhill High,Edinburgh Catering Services,,Silver,,,Rachel Bennett,Karen Robertson,Yes,Lisa McCluskey,lisa.mccluskey@ea.edin.sch.uk,Lorna Norman,07884 191761,,,,,,,,,,,,Derek Peach (Primary Teacher) and Faye Calder (Depute Head Teacher),Jacqueline.MacKenzie@pentland.edin.sch.uk,420
Schools - Primary,ND Primary,Pirniehall Primary School,Head Teacher,Mary Ryan-Gillespie,4 West Pilton Crescent,,Edinburgh,EH4 4EP,0131 332 5256,0131 538 7093,Admin@pirniehall.edin.sch.uk,http://www.pirniehall.edin.sch.uk,,5527821,YES,,North,Forth,322030,676310,Pirniehall PS,,Non-Denominational,Craigroyston Community High,Amey,,Green Flag,,,Lynn Goss,Lynn Goss,,Suzette Barclay,Suzette.Barclay@ea.edin.sch.uk,Andrew Gallacher,07711 390745/0131 477 7801,,,,,,,,,,,,Lynn Goss (Principal Teacher),Mary.Gillespie@pirniehall.edin.sch.uk,271
Schools - Primary,ND Primary,Preston Street Primary School,Head Teacher,Maureen Allan (Acting),169 Dalkeith Road,,Edinburgh,EH16 5BR,0131 667 4208,0131 667 9217,Admin@prestonstreet.edin.sch.uk,http://www.prestonstreet.edin.sch.uk,,5528127,,,South,Southside/Newington,326640,672490,Preston Street PS,,Non-Denominational,James Gillespie`s High,Edinburgh Catering Services,,Silver,,,Simon MacLean,Rachel Somerville,,Rachel Somerville,rachel.sommerville@ea.edin.sch.uk,Fiona Damen (Weds),07769 922742,,,,,,,,,,,,Simon Maclean (Principal Teacher),Maureen.Allan@prestonstreet.edin.sch.uk,270
Schools - Primary,ND Primary,Prestonfield Primary School,Head Teacher,Fiona Murray,Peffermill Road,,Edinburgh,EH16 5LJ,0131 667 1336,0131 662 0813,Admin@Prestonfield.edin.sch.uk,http://www.prestonfield.edin.sch.uk,,5527929,YES,,South,Southside/Newington,327710,671480,Prestonfield PS,,Non-Denominational,Castlebrae High (Dual status with Liberton High),Edinburgh Catering Services,,Silver,,,Vicky Morgan,Debra Long,Yes,Linda Watt,linda.watt@abbeyhill.edin.sch.uk,Ellie Forgan,07884 210647,,,,,,,,,,,,Debra Long (Teacher),Fiona.Murray@prestonfield.edin.sch.uk,198
Schools - Primary,ND Primary,Queensferry Primary School,Head Teacher,Karen MacGregor,Burgess Road,South Queensferry,Edinburgh,EH30 9NX,0131 331 1349,0131 331 5771,admin@queensferry-pri.edin.sch.uk,http://www.queensferry-pri.edin.sch.uk,,5518024,YES,,West,Almond,313091,678034,Queensferry PS,,Non-Denominational,Queensferry High,Edinburgh Catering Services,,Silver,,,Lee Carson,Jane Wallace,,Jane Wallace,Jane.Wallace@ea.edin.sch.uk,Barry McGuigan,0131 319 3200/07799 861494,,,,,,,,,,,,Christine Sawers (Primary Teacher) and Lee Carson (Primary Teacher) and Susan Wainwright (Primary Teacher),Karen.MacGregor@queensferry-pri.edin.sch.uk,404
Schools - Primary,ND Primary,Ratho Primary School,Head Teacher,Claire McGlynn,1 School Wynd,Ratho,Edinburgh,EH28 8TT,0131 333 1293,0131 333 2847,Admin@ratho.edin.sch.uk,http://www.ratho.edin.sch.uk,,5540623,YES,,South West,Pentland Hills,313594,670776,Ratho PS,,Non-Denominational,Balerno Community High,Edinburgh Catering Services,,Green Flag,,,Sarah Hall,Sandra Clelland,,Nicola Mowat,Nicola.Mowat@ea.edin.sch.uk,"Bev Anderson (Mon, Tue, Wed)",07799 861460/0131 477 7788,,,,,,,,,,,,Sarah Hall (Primary Teacher),Claire.McGlynn@ratho.edin.sch.uk,138
Schools - Primary,ND Primary,Roseburn Primary School,Head Teacher,Viv Donaldson,64 Roseburn Street,,Edinburgh,EH12 5PL,0131 337 6096,0131 476 7810,Admin@Roseburn.edin.sch.uk,http://www.roseburn.edin.sch.uk,,5528224,YES,,West,Corstorphine/Murrayfield,322864,672969,Roseburn PS,,Non-Denominational,Craigmount High,Edinburgh Catering Services,,Green Flag,,,Elaine Reid,Christine McColl,,Christine McColl,Christine.McColl@ea.edin.sch.uk,Alisa Wilson,0131 336 2532/07825 843159,,,,,,,,,,,,Elaine Reid (Primary Teacher),Vivien.Donaldson@roseburn.edin.sch.uk,241
Schools - Primary,ND Primary,Royal Mile Primary School,Head Teacher,Nicky Johnstone,86 Canongate,,Edinburgh,EH8 8BZ,0131 556 3347,0131 557 9186,Admin@royalmile.edin.sch.uk,http://www.royalmile.edin.sch.uk,,5541727,YES,,South,City Centre,326582,673816,Royal Mile PS,,Non-Denominational,James Gillespie`s High,Edinburgh Catering Services,,Bronze,,,Nicky Johnstone,Evelyn Luscombe,,Graeme Greig,Graeme.Greig@ea.edin.sch.uk,Jonathan Wallace,07799 861473,,,,,,,,,,,,Graeme Greig (Business Manager) and Nicky Johnston (Head Teacher),Nicky.Johnston@royalmile.edin.sch.uk,146
Schools - Primary,ND Primary,Sciennes Primary School,Head Teacher,Alison Noble,10 Sciennes Road,,Edinburgh,EH9 1LG,0131 667 1243,0131 667 9853,Admin@sciennes.edin.sch.uk,http://www.sciennes.edin.sch.uk,,5528526,,,South,Southside/Newington,325901,672338,Sciennes PS,,Non-Denominational,James Gillespie`s High,Edinburgh Catering Services,,Green Flag,,,Angela Christie,Angela Christie,Yes,Angela Christie,Angela.Christie@ea.edin.sch.uk,Jonathan Wallace,07799 861473,,,,,,,,,,,,Angela Christie (Business Manager) and Lucy Gallagher (Principal Teacher),Alison.Noble@sciennes.edin.sch.uk,634
Schools - Primary,ND Primary,Sighthill Primary School,Head Teacher,Anne Gallagher,1 Calder Park,,Edinburgh,EH11 4NF,0131 453 2464,0131 442 2842,Admin@Sighthill.edin.sch.uk,,,5528623,YES,,South West,Sighthill/Gorgie,319300,670420,Sighthill PS,,Non-Denominational,Wester Hailes Education Centre,Edinburgh Catering Services,,Silver,,,Neil Adams,Rachel Somerville,Yes,Rachel Somerviille,Rachel.Somerville@ea.edin.sch.uk,Charlotte Robertson,0131 442 2201/07884 244362,,,,,,,,,,,,Neil Adams (Principal Teacher),Ann.Gallagher@craigroyston-pri.edin.sch.uk,196
Schools - Primary,ND Primary,South Morningside Primary School,Head Teacher,Elizabeth Grierson,116 Comiston Road,,Edinburgh,EH10 5QN,0131 447 5446,0131 446 9839,Admin@southmorningside.edin.sch.uk,http://www.southmorningside.edin.sch.uk,,5528925,YES,,South,Meadows/Morningside,324340,670470,South Morningside PS,,Non-Denominational,Boroughmuir High,Edinburgh Catering Services,,Silver,,,,Margo O`Connor,,Margo O'Connor,Margo.O'Connor@ea.edin.sch.uk,Andrew Caldwell,07825 386710/0131 229 9703,,,,,,,,,,,,Margo O'Connor (Business Manager),Elizabeth.Grierson@southmorningside.edin.sch.uk,601
Schools - Primary,RC Primary,St Catherine's RC Primary School,Head Teacher,Paul Hunter,30 Gracemount Drive,,Edinburgh,EH16 6RN,0131 664 4257,0131 672 2919,Admin@st-catherines.edin.sch.uk,http://www.st-catherines.edin.sch.uk,,5529220,YES,,South,Liberton/Gilmerton,327818,668449,St Catherine`s RC PS,,Roman Catholic,Holy Rood RC High,Edinburgh Catering Services,,Green Flag,,,Frances Kelly,Ann Auld,,Frances Kelly,Frances.Kelly@ea.edin.sch.uk,Phil Kidd,0131 664 7440/07824 622953,,,,,,,,,,,,Grace Murray-Cavanagh (Teacher),Paul.Hunter@st-catherines.edin.sch.uk,224
Schools - Primary,RC Primary,St Cuthbert's RC Primary School,Head Teacher,Catriona Taylor,9 Hutchison Crossway,,Edinburgh,EH14 1RP,0131 443 2621,0131 443 9298,Admin@st-cuthberts.edin.sch.uk,http://www.st-cuthberts.edin.sch.uk,,5529328,,,West,Fountainbridge/Craiglockhart,322538,671552,St Cuthbert`s RC PS,,Roman Catholic,St Augustine`s RC High,Edinburgh Catering Services,,Silver,,,Claire Baxter,Claire Baxter,,Kathleen Barclay,kathleen.barclay@st-cuthberts.edin.sch.uk,Paddy Dearlove,07884 203270,,,,,,,,,,,,Jennifer Parker,Catriona.Taylor@st-cuthberts.edin.sch.uk,153
Schools - Primary,RC Primary,St David's RC Primary School,Head Teacher,Siobhan Kellock,4 West Pilton Crescent,,Edinburgh,EH4 4EP,0131 332 3500,0131 332 6085,Admin@st-davids.edin.sch.uk,http://www.st-davids.edin.sch.uk,,5529425,YES,,North,Forth,322108,676306,St David`s RC PS,,Roman Catholic,St Augustine`s RC High,Amey,,Green Flag,,,Anne Macintosh,Anne MacIntosh,,Suzette Barclay,Suzette.Barclay@ea.edin.sch.uk,Andrew Gallacher,07711 390745/0131 477 7801,,,,,,,,,,,,Anne MacIntosh (Principal Teacher/Support for Learning),Siobhan.Kellock@st-davids.edin.sch.uk,270
Schools - Primary,RC Primary,St Francis' RC Primary School,Head Teacher,Margot MacAlister,20 Moffat Way,,Edinburgh,EH16 4PY,0131 621 6600,0131 621 6603,Admin@st-francis.edin.sch.uk,http://www.st-francis.edin.sch.uk,,5529522,,,East,Portobello/Craigmillar,329645,671934,St Francis` RC PS,,Roman Catholic,Holy Rood RC High,Edinburgh Catering Services,,Bronze,,,Karen McLeod,Elizabeth Docherty,,Sylvia Hawthorne,Sylvia.Hawthorne@ea.edin.sch.uk,"Shirley Banks (Mon, Tues)",07774 468782,,,,,,,,,,,,Theresa Walker (Learning Assistant),margot.macalister@st-francis.edin.sch.uk,175
Schools - Primary,RC Primary,St John Vianney RC Primary School,Head Teacher,Helen Hill,17 Ivanhoe Crescent,,Edinburgh,EH16 6AU,0131 664 1742,0131 672 2854,Admin@st-johnvianney.edin.sch.uk,,,5529824,YES,,South,Liberton/Gilmerton,327760,670120,St John Vianney RC PS,,Roman Catholic,Holy Rood RC High,Edinburgh Catering Services,,Green Flag,,,Alice Bacciarelli,Frances Kelly,Yes,Frances Kelly,frances.kelly@ea.edin.sch.uk,Ellie Forgan,07884 210647,,,,,,,,,,,,Alice Bacciarelli (Primary Teacher) and Frances Kelly (Business Manager),Helen.Hill@st-johnvianney.edin.sch.uk,295
Schools - Primary,RC Primary,St John's RC Primary School,Head Teacher,Barbara Service,Hamilton Terrace,,Edinburgh,EH15 1NB,0131 669 1363,0131 657 3122,Admin@st-johns.edin.sch.uk,,,5529727,YES,,East,Craigentinny/Duddingston,330038,673454,St John`s RC PS,,Roman Catholic,Holy Rood RC High,Edinburgh Catering Services,,Silver,,,Jackie Kelly,Jackie Kelly,,Sylvia Hawthorne,sylvia.hawthorne@ea.edin.sch.uk,"Lorraine Dickson (Wed, Thu, Fri)",07825 387256,,,,,,,,,,,,Cath McTernan (Learning Assistant) and Jacqueline Kelly (Principal Teacher) and Sylvia Hawthorne (Business Manager),Barbara.Service@st-johns.edin.sch.uk,409
Schools - Primary,RC Primary,St Joseph's RC Primary School,Head Teacher,Wynne McDonald,Saughton Road,,Edinburgh,EH11 3RQ,0131 443 4591,0131 444 2802,Admin@st-josephs.edin.sch.uk,http://www.st-josephs.edin.sch.uk,,5529921,YES,,West,Sighthill/Gorgie,320546,671330,St Joseph`s RC PS,,Roman Catholic,St Augustine`s RC High,Amey,,Green Flag,,,Brian Moody,Fiona Orris,,Pamela Soutar,Pamela.Soutar@ea.edin.sch.uk,Paddy Dearlove,07884 203270,,,,,,,,,,,,Brian Moody (Staff),Wynne.McDonald@st-josephs.edin.sch.uk,260
Schools - Primary,RC Primary,St Margaret's RC Primary School,Head Teacher,Katy Finn (Acting),Station Road,South Queensferry,Edinburgh,EH30 9JY,0131 331 1895,0131 331 5493,admin@st-margarets-pri.edin.sch.uk,http://www.st-margarets-pri.edin.sch.uk,,5518121,,,West,Almond,313497,678047,St Margaret`s RC PS,,Roman Catholic,St Augustine`s RC High,Edinburgh Catering Services,,Green Flag,,,Marian Randall,Arlene Davison,,Arlene Davison,Arlene.Davison@ea.edin.sch.uk,Barry McGuigan,0131 319 3200/07799 861494,,,,,,,,,,,,Marian Randall (Principle Teacher) and Sheila Turner (Primary Teacher),Katy.Finn@foxcovert-rc.edin.sch.uk,93
Schools - Primary,RC Primary,St Mark's RC Primary School,Head Teacher,James McDevitt,63 Firrhill Crescent,,Edinburgh,EH13 9EE,0131 441 2948,0131 441 7601,Admin@st-marks.edin.sch.uk,http://www.st-marks.edin.sch.uk,,5530024,YES,,South West,Colinton/Fairmilehead,323212,669361,St Mark`s RC PS,,Roman Catholic,St Thomas of Aquin`s RC High,Edinburgh Catering Services,,Silver,,,Lyndsy Adam,Sarah Munro,,Lyndsy Adam,Lyndsy.Adam@st-marks.edin.sch.uk,Cameron Reid,07824 622936/0131 229 8734,,,,,,,,,,,,Alison Yeoman (Learning Support Teacher),James.McDevitt@st-marks.edin.sch.uk,176
Schools - Primary,RC Primary,St Mary's RC Primary School (Edin),Head Teacher,Nicola Kehoe,63 East London Street,,Edinburgh,EH7 4BW,0131 556 7128,0131 557 2455,Admin@st-marysrc-pri.edin.sch.uk,http://www.st-marysrc-pri.edin.sch.uk,,5530121,,,North,City Centre,325970,674706,St Mary`s RC PS (Edin),,Roman Catholic,St Thomas of Aquin`s RC High,Edinburgh Catering Services,,Green Flag,,,Fiona Hunter,Jacqueline Messer,Yes,Janice Grant,Janice.Grant@ea.edin.sch.uk,Cameron Reid,07824 622936/0131 229 8734,,,,,,,,,,,,Fiona Hunter (Principal Teacher) and Linda Riach (Learning Assistant) and Mhairi-Louise Teden (Primary Teacher),Nicola.Kehoe@st-marysrc-pri.edin.sch.uk,366
Schools - Primary,RC Primary,St Mary's RC Primary School (Leith),Head Teacher,Stephen Gilhooley,30 Links Gardens,,Edinburgh,EH6 7JG,0131 554 7291,0131 554 8523,Admin@st-marys-pri.edin.sch.uk,,,5530229,YES,,North,Leith,327710,676010,St Mary`s RC PS (Leith),,Roman Catholic,Holy Rood RC High,Edinburgh Catering Services,,Green Flag,,,Jim Gillon,Luisa Hancock,,Louise Anderson,Louise.Anderson@ea.edin.sch.uk,Nicola Barclay,07825 842971,,,,,,,,,,,,Jim Gillon (Principal Teacher),Stephen.Gilhooley@st-marys-pri.edin.sch.uk,311
Schools - Primary,RC Primary,St Ninian's RC Primary School,Head Teacher,Angie Brack (Acting),150 Restalrig Road South,,Edinburgh,EH7 6JA,0131 661 3431,0131 652 1458,Admin@st-ninians.edin.sch.uk,http://www.st-ninians.edin.sch.uk,,5530326,YES,,North,Craigentinny/Duddingston,328267,674786,St Ninian`s RC PS,,Roman Catholic,Holy Rood RC High,Edinburgh Catering Services,,Bronze,,,Angela Brack,Patricia Henderson,,Louise Anderson,Louise.Anderson@ea.edin.sch.uk,"Lorraine Dickson (Wed, Thu, Fri)",07825 387256,,,,,,,,,,,,Angie Brack (Principal Teacher ),Angie.Brack@st-ninians.edin.sch.uk,251
Schools - Primary,RC Primary,St Peter's RC Primary School,Head Teacher,Kathleen Nazarian,10 Falcon Road,,Edinburgh,EH10 4AH,0131 447 5742,0131 446 3674,Admin@st-peters.edin.sch.uk,http://www.st-peters.edin.sch.uk,,5530520,YES,,South,Meadows/Morningside,324840,671357,St Peter`s RC PS,,Roman Catholic,St Thomas of Aquin`s RC High,Amey,,Silver,,,Dorothy Johnstone,Margot Connor,,Margo O'Connor,Margo.O`Connor@ea.edin.sch.uk,Cameron Reid,07824 622936/0131 229 8734,,,,,,,,,,,,,Kathleen.Nazarian@st-peters.edin.sch.uk,436
Schools - Primary,ND Primary,Stenhouse Primary School,Head Teacher,Marlene Galashan,4 Saughton Mains Street,,Edinburgh,EH11 3HH,0131 443 1255,0131 467 7792,Admin@stenhouse.edin.sch.uk,http://www.stenhouse.edin.sch.uk,,5529026,YES,,West,Sighthill/Gorgie,321200,671580,Stenhouse PS,,Non-Denominational,Tynecastle High,Edinburgh Catering Services,,Registered,,,Anne Blair,Anne Blair,,Peter Malone,Peter.Malone@ea.edin.sch.uk,Pamela Brown,07884 142774,,,,,,,,,,,,Steven Jamieson (Depute Head Teacher),Marlene.Galashan@stenhouse.edin.sch.uk,317
Schools - Primary,ND Primary,Stockbridge Primary School,Head Teacher,Faye Calder-Kelly,17a Hamilton Place,,Edinburgh,EH3 5BA,0131 332 6109,0131 332 6109,Admin@stockbridge.edin.sch.uk,http://www.stockbridge.edin.sch.uk,,5529123,YES,,North,Inverleith,324690,674700,Stockbridge PS,,Non-Denominational,Broughton High,Edinburgh Catering Services,,Silver,,,Amanda Burton,Amanda Burton,Yes,Kirsten Boyd,Kirsten.Boyd@ea.edin.sch.uk,Robert Ure,07884 216213,,,,,,,,,,,,Amanda Burton (Primary Teacher) and Marion Donohoe (Learning Assistant),Faye.Calder@stockbridge.edin.sch.uk,224
Schools - Primary,ND Primary,The Royal High Primary School,Head Teacher,Joan Brear,61 Northfield Broadway,,Edinburgh,EH8 7RX,0131 669 3200,0131 669 1552,Admin@royalhigh-pri.edin.sch.uk,http://www.royalhigh-pri.edin.sch.uk/,,5528321,YES,,East,Craigentinny/Duddingston,328920,673980,The Royal High PS,,Non-Denominational,Portobello High,Edinburgh Catering Services,,Green Flag,,,Janet Wallace,Janet Wallace,,Brian Cairnie,Brian.Cairnie@ea.edin.sch.uk,Shona Clark (Tues - Fri),0131 669 2324/07776 151522,,,,,,,,,,,,Brian Cairnie (Business Manager) and Janet Wallace (Primary Teacher) and Lindsay Moran (Primary Teacher),Joan.Brear@royalhigh-pri.edin.sch.uk,374
Schools - Primary,ND Primary,Tollcross Primary School,Head Teacher,Alice Brown,117 Fountainbridge,,Edinburgh,EH3 9QG,0131 229 7828,0131 229 5838,Admin@tollcross.edin.sch.uk,http://www.tollcross.edin.sch.uk,,5530628,YES,,South,Fountainbridge/Craiglockhart,324752,672904,Tollcross PS,,Non-Denominational,James Gillespie`s High,Edinburgh Catering Services,,Green Flag,,,E Brand,Margaret Gilmour,,Joe Biolik,Joe.Biolik@ea.edin.sch.uk,Fiona Damen (Weds),07769 922742,,,,,,,,,,,,Joe Biolik (Business Manager) and Lynn Brand (Principal Teacher),alice.brown@tollcross.edin.sch.uk,350
Schools - Primary,ND Primary,Towerbank Primary School,Head Teacher,Gordon McIntyre (Acting),Figgate Bank,,Edinburgh,EH15 1HX,0131 669 1551,0131 657 3907,Admin@Towerbank.edin.sch.uk,http://www.towerbank.edin.sch.uk,,5530725,YES,"Bath Street, Portobello, EH15 1EZ",East,Portobello/Craigmillar,330610,674100,Towerbank PS,,Non-Denominational,Portobello High,Edinburgh Catering Services,,Green Flag,,,Joyce Gilmour,Joyce Gilmour,,Norine Langlands,Norine.Langlands@ea.edin.sch.uk,Jayne Smith (term-time only),0131 669 2324/07776 151522,,,,,,,,,,,,Joyce Gilmour (Head Teacher) and Norine Langlands (Business Manager),gordon.mcintyre@towerbank.edin.sch.uk,595
Schools - Primary,ND Primary,Trinity Primary School,Head Teacher,Jacqueline Scott,181 Newhaven Road,,Edinburgh,EH6 4QA,0131 554 2062,0131 553 4607,Admin@trinity-pri.edin.sch.uk,http://www.trinity-pri.edin.sch.uk,,5530822,,,North,Forth,325630,676570,Trinity PS,,Non-Denominational,Trinity Academy,Edinburgh Catering Services,,Green Flag,,,Helen Donaldson,Rebecca Boath,Yes,Piers Steptoe,Piers.Steptoe@ea.edin.sch.uk,Nicky Wheatley,07799 868054,,,,,,,,,,,,Piers Steptoe (Business Manager),Jacqueline.Scott@trinity-pri.edin.sch.uk,465
Schools - Primary,ND Primary,Victoria Primary School,Head Teacher,Laura Thomson,4-6 Newhaven Main Street,,Edinburgh,EH6 4HY,0131 476 7306,0131 466 7278,Admin@victoria.edin.sch.uk,http://www.victoria.edin.sch.uk,,5531020,,,North,Leith,325672,677036,Victoria PS,,Non-Denominational,Trinity Academy,Edinburgh Catering Services,,Green Flag,,,Marjory Irvine,Heather Suttie,,Piers Steptoe,Piers.Steptoe@ea.edin.sch.uk,Nicky Wheatley,07799 868054,,,,,,,,,,,,Piers Steptoe (Business Manager),Laura.Thomson@victoria.edin.sch.uk,152
Schools - Primary,ND Primary,Wardie Primary School,Head Teacher,Jane Nieminska,Granton Road,,Edinburgh,EH5 3NJ,0131 552 3896,0131 551 6596,Admin@wardie.edin.sch.uk,http://www.wardie.edin.sch.uk,,5531128,,,North,Forth,324341,676477,Wardie PS,,Non-Denominational,Trinity Academy,Edinburgh Catering Services,,Green Flag,,,Susan Leach,Dawn Maginnis,Yes,Fanette Genais,Fanette.genais@wardie.edin.sch.uk,Nicky Wheatley,07799 868054,,,,,,,,,,,,Fanette Genais (Business Manager) and Fiona Marjoribanks (Primary Teacher) and Jacqueline Allan (Learning Assistant),Jane.Nieminska@wardie.edin.sch.uk,417
